start=new Date('2022-04-03T00:00:00.000Z').valueOf();
sats=[{"PERIAPSIS":"546.236","PERIOD":"95.592","OBJECT_NAME":"STARLINK-2249","TLE_LINE1":"1 48592U 21041AR  22092.76961667 -.00000090  00000-0  12868-4 0  9998","OBJECT_ID":"2021-041AR","SEMIMAJOR_AXIS":"6925.348","ECCENTRICITY":"0.00014110","DECAY_DATE":null,"EPHEMERIS_TYPE":"0","MEAN_MOTION":"15.06400058","MEAN_MOTION_DDOT":"0.0000000000000","TIME_SYSTEM":"UTC","RCS_SIZE":"LARGE","BSTAR":"0.00001286800000","MEAN_ELEMENT_THEORY":"SGP4","TLE_LINE2":"2 48592  53.0541 112.2121 0001411  68.1377 291.9762 15.06400058 48486","REV_AT_EPOCH":"4848","ARG_OF_PERICENTER":"68.1377","OBJECT_TYPE":"PAYLOAD","LAUNCH_DATE":"2021-05-15","COUNTRY_CODE":"US","INCLINATION":"53.0541","ELEMENT_SET_NO":"999","MEAN_MOTION_DOT":"-0.00000090","EPOCH":"2022-04-02T18:28:14.880288","NORAD_CAT_ID":"48592","CENTER_NAME":"EARTH","GP_ID":"200323358","FILE":"3385473","RA_OF_ASC_NODE":"112.2121","CLASSIFICATION_TYPE":"U","APOAPSIS":"548.191","MEAN_ANOMALY":"291.9762","REF_FRAME":"TEME","SITE":"AFETR"},{"TIME_SYSTEM":"UTC","MEAN_MOTION_DDOT":"0.0000000000000","TLE_LINE2":"2 48593  53.0541 112.1809 0001494  61.6137 298.5002 15.06394548 48488","RCS_SIZE":"LARGE","BSTAR":"-0.00003288500000","MEAN_ELEMENT_THEORY":"SGP4","REV_AT_EPOCH":"4848","TLE_LINE1":"1 48593U 21041AS  22092.77699116 -.00000771  00000-0 -32885-4 0  9995","OBJECT_ID":"2021-041AS","OBJECT_NAME":"STARLINK-2250","PERIAPSIS":"546.196","PERIOD":"95.592","MEAN_MOTION":"15.06394548","EPHEMERIS_TYPE":"0","SEMIMAJOR_AXIS":"6925.365","DECAY_DATE":null,"ECCENTRICITY":"0.00014940","CENTER_NAME":"EARTH","FILE":"3385473","GP_ID":"200322607","MEAN_ANOMALY":"298.5002","REF_FRAME":"TEME","SITE":"AFETR","CLASSIFICATION_TYPE":"U","RA_OF_ASC_NODE":"112.1809","APOAPSIS":"548.265","ARG_OF_PERICENTER":"61.6137","OBJECT_TYPE":"PAYLOAD","EPOCH":"2022-04-02T18:38:52.036224","MEAN_MOTION_DOT":"-0.00000771","NORAD_CAT_ID":"48593","LAUNCH_DATE":"2021-05-15","ELEMENT_SET_NO":"999","INCLINATION":"53.0541","COUNTRY_CODE":"US"},{"EPHEMERIS_TYPE":"0","MEAN_MOTION":"15.06383155","SEMIMAJOR_AXIS":"6925.400","DECAY_DATE":null,"ECCENTRICITY":"0.00013920","TLE_LINE1":"1 48594U 21041AT  22092.91668981 -.00011588  00000-0 -76063-3 0  9991","OBJECT_ID":"2021-041AT","OBJECT_NAME":"STARLINK-2251","PERIAPSIS":"546.301","PERIOD":"95.593","TLE_LINE2":"2 48594  53.0542  81.5316 0001392  86.2821 202.0336 15.06383155  3597","MEAN_ELEMENT_THEORY":"SGP4","RCS_SIZE":"LARGE","BSTAR":"-0.00076063000000","REV_AT_EPOCH":"359","TIME_SYSTEM":"UTC","MEAN_MOTION_DDOT":"0.0000000000000","EPOCH":"2022-04-02T22:00:01.999584","MEAN_MOTION_DOT":"-0.00011588","NORAD_CAT_ID":"48594","LAUNCH_DATE":"2021-05-15","ELEMENT_SET_NO":"999","INCLINATION":"53.0542","COUNTRY_CODE":"US","ARG_OF_PERICENTER":"86.2821","OBJECT_TYPE":"PAYLOAD","REF_FRAME":"TEME","MEAN_ANOMALY":"202.0336","SITE":"AFETR","CLASSIFICATION_TYPE":"U","RA_OF_ASC_NODE":"81.5316","APOAPSIS":"548.229","CENTER_NAME":"EARTH","FILE":"3385473","GP_ID":"200322857"},{"MEAN_MOTION_DDOT":"0.0000000000000","TIME_SYSTEM":"UTC","REV_AT_EPOCH":"4975","TLE_LINE2":"2 48595  53.0554 112.2596 0001485  68.3525 291.7622 15.06394757 49759","RCS_SIZE":"LARGE","BSTAR":"-0.00004428800000","MEAN_ELEMENT_THEORY":"SGP4","OBJECT_NAME":"STARLINK-2252","PERIAPSIS":"546.201","PERIOD":"95.592","OBJECT_ID":"2021-041AU","TLE_LINE1":"1 48595U 21041AU  22092.75856311 -.00000941  00000-0 -44288-4 0  9996","DECAY_DATE":null,"ECCENTRICITY":"0.00014850","SEMIMAJOR_AXIS":"6925.365","EPHEMERIS_TYPE":"0","MEAN_MOTION":"15.06394757","GP_ID":"200323108","FILE":"3385473","CENTER_NAME":"EARTH","APOAPSIS":"548.258","CLASSIFICATION_TYPE":"U","RA_OF_ASC_NODE":"112.2596","SITE":"AFETR","MEAN_ANOMALY":"291.7622","REF_FRAME":"TEME","OBJECT_TYPE":"PAYLOAD","ARG_OF_PERICENTER":"68.3525","ELEMENT_SET_NO":"999","INCLINATION":"53.0554","COUNTRY_CODE":"US","LAUNCH_DATE":"2021-05-15","NORAD_CAT_ID":"48595","EPOCH":"2022-04-02T18:12:19.852704","MEAN_MOTION_DOT":"-0.00000941"},{"GP_ID":"200323859","FILE":"3385473","CENTER_NAME":"EARTH","APOAPSIS":"548.451","CLASSIFICATION_TYPE":"U","RA_OF_ASC_NODE":"112.1634","SITE":"AFETR","REF_FRAME":"TEME","MEAN_ANOMALY":"308.7450","OBJECT_TYPE":"PAYLOAD","ARG_OF_PERICENTER":"51.3696","ELEMENT_SET_NO":"999","COUNTRY_CODE":"US","INCLINATION":"53.0535","LAUNCH_DATE":"2021-05-15","NORAD_CAT_ID":"48596","EPOCH":"2022-04-02T18:44:10.141152","MEAN_MOTION_DOT":"0.00002468","MEAN_MOTION_DDOT":"0.0000000000000","TIME_SYSTEM":"UTC","REV_AT_EPOCH":"4894","TLE_LINE2":"2 48596  53.0535 112.1634 0001763  51.3696 308.7450 15.06394678 48941","MEAN_ELEMENT_THEORY":"SGP4","RCS_SIZE":"LARGE","BSTAR":"0.00018456000000","OBJECT_NAME":"STARLINK-2253","PERIAPSIS":"546.009","PERIOD":"95.592","OBJECT_ID":"2021-041AV","TLE_LINE1":"1 48596U 21041AV  22092.78067293  .00002468  00000-0  18456-3 0  9994","DECAY_DATE":null,"ECCENTRICITY":"0.00017630","SEMIMAJOR_AXIS":"6925.365","MEAN_MOTION":"15.06394678","EPHEMERIS_TYPE":"0"},{"MEAN_MOTION_DDOT":"0.0000000000000","TIME_SYSTEM":"UTC","REV_AT_EPOCH":"4975","RCS_SIZE":"LARGE","MEAN_ELEMENT_THEORY":"SGP4","BSTAR":"0.00008892200000","TLE_LINE2":"2 48597  53.0539 112.1343 0001582  73.3570 286.7592 15.06402651 49750","PERIAPSIS":"546.110","PERIOD":"95.592","OBJECT_NAME":"STARLINK-2255","OBJECT_ID":"2021-041AW","TLE_LINE1":"1 48597U 21041AW  22092.78804240  .00001043  00000-0  88922-4 0  9990","ECCENTRICITY":"0.00015820","DECAY_DATE":null,"SEMIMAJOR_AXIS":"6925.340","MEAN_MOTION":"15.06402651","EPHEMERIS_TYPE":"0","FILE":"3385473","GP_ID":"200322107","CENTER_NAME":"EARTH","APOAPSIS":"548.301","RA_OF_ASC_NODE":"112.1343","CLASSIFICATION_TYPE":"U","SITE":"AFETR","MEAN_ANOMALY":"286.7592","REF_FRAME":"TEME","OBJECT_TYPE":"PAYLOAD","ARG_OF_PERICENTER":"73.3570","INCLINATION":"53.0539","COUNTRY_CODE":"US","ELEMENT_SET_NO":"999","LAUNCH_DATE":"2021-05-15","NORAD_CAT_ID":"48597","MEAN_MOTION_DOT":"0.00001043","EPOCH":"2022-04-02T18:54:46.863360"},{"RCS_SIZE":"LARGE","MEAN_ELEMENT_THEORY":"SGP4","BSTAR":"-0.00010921000000","TLE_LINE2":"2 48598  53.0525 113.5912 0001451  64.8969 295.2170 15.06397483 48892","REV_AT_EPOCH":"4889","TIME_SYSTEM":"UTC","MEAN_MOTION_DDOT":"0.0000000000000","MEAN_MOTION":"15.06397483","EPHEMERIS_TYPE":"0","SEMIMAJOR_AXIS":"6925.356","ECCENTRICITY":"0.00014510","DECAY_DATE":null,"TLE_LINE1":"1 48598U 21041AX  22092.45999807 -.00001908  00000-0 -10921-3 0  9994","OBJECT_ID":"2021-041AX","PERIAPSIS":"546.216","PERIOD":"95.592","OBJECT_NAME":"STARLINK-2256","MEAN_ANOMALY":"295.2170","REF_FRAME":"TEME","SITE":"AFETR","RA_OF_ASC_NODE":"113.5912","CLASSIFICATION_TYPE":"U","APOAPSIS":"548.226","CENTER_NAME":"EARTH","GP_ID":"200322357","FILE":"3385473","MEAN_MOTION_DOT":"-0.00001908","EPOCH":"2022-04-02T11:02:23.833248","NORAD_CAT_ID":"48598","LAUNCH_DATE":"2021-05-15","INCLINATION":"53.0525","COUNTRY_CODE":"US","ELEMENT_SET_NO":"999","ARG_OF_PERICENTER":"64.8969","OBJECT_TYPE":"PAYLOAD"},{"EPHEMERIS_TYPE":"0","MEAN_MOTION":"15.06390402","DECAY_DATE":null,"ECCENTRICITY":"0.00015970","SEMIMAJOR_AXIS":"6925.378","OBJECT_ID":"2021-041AY","TLE_LINE1":"1 48599U 21041AY  22092.68530610 -.00001806  00000-0 -10239-3 0  9992","OBJECT_NAME":"STARLINK-2274","PERIOD":"95.593","PERIAPSIS":"546.137","REV_AT_EPOCH":"5009","TLE_LINE2":"2 48599  53.0556  87.5739 0001597  57.6635 302.4508 15.06390402 50090","BSTAR":"-0.00010239000000","RCS_SIZE":"LARGE","MEAN_ELEMENT_THEORY":"SGP4","TIME_SYSTEM":"UTC","MEAN_MOTION_DDOT":"0.0000000000000","NORAD_CAT_ID":"48599","EPOCH":"2022-04-02T16:26:50.447040","MEAN_MOTION_DOT":"-0.00001806","ELEMENT_SET_NO":"999","COUNTRY_CODE":"US","INCLINATION":"53.0556","LAUNCH_DATE":"2021-05-15","OBJECT_TYPE":"PAYLOAD","ARG_OF_PERICENTER":"57.6635","SITE":"AFETR","REF_FRAME":"TEME","MEAN_ANOMALY":"302.4508","APOAPSIS":"548.349","CLASSIFICATION_TYPE":"U","RA_OF_ASC_NODE":"87.5739","GP_ID":"200323609","FILE":"3385473","CENTER_NAME":"EARTH"},{"RA_OF_ASC_NODE":"102.4014","CLASSIFICATION_TYPE":"U","APOAPSIS":"548.256","MEAN_ANOMALY":"286.0274","REF_FRAME":"TEME","SITE":"AFETR","CENTER_NAME":"EARTH","GP_ID":"200323359","FILE":"3385473","LAUNCH_DATE":"2021-05-15","COUNTRY_CODE":"US","INCLINATION":"53.0532","ELEMENT_SET_NO":"999","MEAN_MOTION_DOT":"-0.00000683","EPOCH":"2022-04-02T17:20:33.507456","NORAD_CAT_ID":"48600","ARG_OF_PERICENTER":"74.0880","OBJECT_TYPE":"PAYLOAD","BSTAR":"-0.00002692600000","RCS_SIZE":"LARGE","MEAN_ELEMENT_THEORY":"SGP4","TLE_LINE2":"2 48600  53.0532 102.4014 0001498  74.0880 286.0274 15.06398260 49887","REV_AT_EPOCH":"4988","MEAN_MOTION_DDOT":"0.0000000000000","TIME_SYSTEM":"UTC","SEMIMAJOR_AXIS":"6925.354","ECCENTRICITY":"0.00014980","DECAY_DATE":null,"MEAN_MOTION":"15.06398260","EPHEMERIS_TYPE":"0","PERIOD":"95.592","PERIAPSIS":"546.181","OBJECT_NAME":"STARLINK-2275","TLE_LINE1":"1 48600U 21041AZ  22092.72261004 -.00000683  00000-0 -26926-4 0  9991","OBJECT_ID":"2021-041AZ"},{"SEMIMAJOR_AXIS":"6925.381","DECAY_DATE":null,"ECCENTRICITY":"0.00016760","MEAN_MOTION":"15.06389490","EPHEMERIS_TYPE":"0","OBJECT_NAME":"STARLINK-2713","PERIAPSIS":"546.085","PERIOD":"95.593","TLE_LINE1":"1 48602U 21041BB  22092.71847455 -.00001955  00000-0 -11244-3 0  9991","OBJECT_ID":"2021-041BB","TLE_LINE2":"2 48602  53.0542  87.4279 0001676  55.0439 305.0707 15.06389490 50084","RCS_SIZE":"LARGE","MEAN_ELEMENT_THEORY":"SGP4","BSTAR":"-0.00011244000000","REV_AT_EPOCH":"5008","MEAN_MOTION_DDOT":"0.0000000000000","TIME_SYSTEM":"UTC","LAUNCH_DATE":"2021-05-15","ELEMENT_SET_NO":"999","COUNTRY_CODE":"US","INCLINATION":"53.0542","EPOCH":"2022-04-02T17:14:36.201120","MEAN_MOTION_DOT":"-0.00001955","NORAD_CAT_ID":"48602","ARG_OF_PERICENTER":"55.0439","OBJECT_TYPE":"PAYLOAD","CLASSIFICATION_TYPE":"U","RA_OF_ASC_NODE":"87.4279","APOAPSIS":"548.406","REF_FRAME":"TEME","MEAN_ANOMALY":"305.0707","SITE":"AFETR","CENTER_NAME":"EARTH","GP_ID":"200322608","FILE":"3385473"}];
